[{"OBJECT_NAME":"STARLINK-3878","OBJECT_ID":"2022-049AE","EPOCH":"2026-03-09T04:24:44.581248","MEAN_MOTION":15.08834814,"ECCENTRICITY":0.00014111,"INCLINATION":53.2174,"RA_OF_ASC_NODE":51.392,"ARG_OF_PERICENTER":88.483,"MEAN_ANOMALY":271.6324,"EPHEMERIS_TYPE":0,"CLASSIFICATION_TYPE":"U","NORAD_CAT_ID":52479,"ELEMENT_SET_NO":999,"REV_AT_EPOCH":21355,"BSTAR":-3.0863873e-5,"MEAN_MOTION_DOT":-7.79e-6,"MEAN_MOTION_DDOT":0},{"OBJECT_NAME":"FENGYUN 1C DEB","OBJECT_ID":"1999-025MS","EPOCH":"2026-03-09T16:57:35.155296","MEAN_MOTION":14.61416869,"ECCENTRICITY":0.02155264,"INCLINATION":98.7394,"RA_OF_ASC_NODE":123.3199,"ARG_OF_PERICENTER":267.4845,"MEAN_ANOMALY":90.1666,"EPHEMERIS_TYPE":0,"CLASSIFICATION_TYPE":"U","NORAD_CAT_ID":30017,"ELEMENT_SET_NO":999,"REV_AT_EPOCH":1714,"BSTAR":0.0001741808,"MEAN_MOTION_DOT":1.129e-5,"MEAN_MOTION_DDOT":0}]
